COSMOS 2542             
1 44797U 19079A   19340.71061536 -.00000115  00000-0  00000+0 0  9990
2 44797  97.8972  40.3372 0349557 285.5915  70.6982 14.85229848  1602
TIBA-1                  
1 44800U 19080A   19337.46035917 -.00000120  00000-0  00000-0 0  9996
2 44800   0.5113 219.5419 1555535 173.4328 336.8994  1.24763131   130
INMARSAT GX5            
1 44801U 19080B   19339.94172542 -.00000214  00000-0  00000-0 0  9992
2 44801   0.0777 262.2465 0004153 261.8561 332.4034  1.00554900   170
CARTOSAT-3              
1 44804U 19081A   19340.58228772  .00000197  00000-0  12826-4 0  9997
2 44804  97.5241  37.5887 0014687 198.6317 279.0561 15.18707532  1425
MESHBED                 
1 44806U 19081C   19339.89973828  .00001079  00000-0  54655-4 0  9996
2 44806  97.5222  36.9112 0013782 209.2061 150.8404 15.19087879  1316
FLOCK 4P-9              
1 44807U 19081D   19339.83341875  .00000475  00000-0  25898-4 0  9998
2 44807  97.5230  36.8478 0013214 211.3380 148.7068 15.19161391  1312
FLOCK 4P-10             
1 44808U 19081E   19340.42608767 -.00000063  00000-0  31266-6 0  9994
2 44808  97.5232  37.4390 0013175 209.4367 150.6127 15.19186345  1408
FLOCK 4P-11             
1 44809U 19081F   19339.83303326  .00000608  00000-0  32117-4 0  9999
2 44809  97.5231  36.8486 0012887 211.7481 148.2978 15.19229821  1313
FLOCK 4P-12             
1 44810U 19081G   19339.89876488  .00000453  00000-0  24775-4 0  9990
2 44810  97.5233  36.9150 0012768 211.5793 148.4676 15.19252012  1324
FLOCK 4P-4              
1 44811U 19081H   19339.89773950  .00000490  00000-0  26396-4 0  9993
2 44811  97.5236  36.9172 0012160 200.8297 159.2443 15.19433658  1327
FLOCK 4P-3              
1 44812U 19081J   19339.83181122  .00000958  00000-0  48437-4 0  9991
2 44812  97.5236  36.8518 0012037 200.9207 159.1537 15.19447932  1318
FLOCK 4P-2              
1 44813U 19081K   19340.42407165  .00000572  00000-0  30164-4 0  9997
2 44813  97.5236  37.4427 0011762 198.7627 161.3176 15.19519454  1402
FLOCK 4P-1              
1 44814U 19081L   19340.42391001  .00000296  00000-0  17194-4 0  9990
2 44814  97.5235  37.4428 0011634 198.8196 161.2610 15.19545397  1400
FLOCK 4P-8              
1 44815U 19081M   19340.16000028  .00000678  00000-0  35077-4 0  9992
2 44815  97.5234  37.1810 0011152 200.8415 159.2366 15.19631653  1366
FLOCK 4P-7              
1 44816U 19081N   19339.89641248  .00000674  00000-0  34846-4 0  9995
2 44816  97.5234  36.9185 0010965 202.1128 157.9635 15.19665954  1327
FLOCK 4P-6              
1 44817U 19081P   19340.42289524  .00000526  00000-0  27878-4 0  9995
2 44817  97.5234  37.4438 0010761 200.7545 159.3254 15.19712265  1406
FLOCK 4P-5              
1 44818U 19081Q   19339.89587875  .00000703  00000-0  36107-4 0  9997
2 44818  97.5233  36.9190 0010499 203.4366 156.6391 15.19759202  1329
GAOFEN 12               
1 44819U 19082A   19340.54415852  .00061668  00000-0  80476-2 0  9991
2 44819  97.9274   0.1432 0001039 109.0281 251.0127 14.80211577  1263
DRAGON CRS-19           
1 44821U 19083A   19340.79187643  .00131915  11275-4  13371-3 0  9990
2 44821  51.6490 225.7990 0136166  52.3210 309.2655 15.94267606   170
ALE-2                   
1 44824U 19084A   19340.56713008  .00006302  00000-0  10000-3 0  9996
2 44824  97.0087 204.7264 0012683 305.9311  54.0772 15.53625797    30
2019-084D               
1 44827U 19084D   19340.76941253 -.00000116  00000-0  00000+0 0  9999
2 44827  97.0021 204.9239 0040633 254.7833 170.2720 15.64175477    65
2019-084E               
1 44828U 19084E   19340.77115836 -.00000116  00000-0  00000+0 0  9991
2 44828  96.9949 204.8975 0040709 259.9695 174.9167 15.64226684    58
2019-084F               
1 44829U 19084F   19340.88891390 -.00000116  00000-0  00000+0 0  9990
2 44829  97.0015 205.0387 0039594 253.9592 124.1035 15.64520077    71
2019-084G               
1 44830U 19084G   19340.88891231 -.00000117  00000-0  00000+0 0  9997
2 44830  97.0065 205.0397 0041009 255.0619 123.0188 15.64531885    72
2019-084H               
1 44831U 19084H   19340.88887977 -.00000115  00000-0  00000+0 0  9998
2 44831  97.0090 205.0432 0036631 251.4673 126.4929 15.64527832    84
2019-084J               
1 44832U 19084J   19340.88883282 -.00000116  00000-0  00000+0 0  9995
2 44832  97.0011 205.0411 0039352 253.4121 124.3709 15.64625184    79
2019-085A               
1 44833U 19085A   19340.71375353 -.00000757  00000-0  00000+0 0  9995
2 44833  51.6282 226.6122 0007784  25.2643  43.5727 15.84199779    27
